FLOCK 4G-20             
1 62636U 25009AD  26068.72112942  .00065564  00000+0  17945-2 0  9992
2 62636  97.3941 151.4523 0001677 285.4351  74.6708 15.37103410 63767
KUIPER-00199            
1 67771U 26030H   26068.84924475  .00034812  00000+0  10340-2 0  9991
2 67771  51.8811 218.6320 0010842  59.6620 300.5437 15.34402964  5116
